{"type": "FeatureCollection", "features": [ {"type": "Feature", "properties": {"norad_id": 32384, "name": "GPS BIIRM-5 (PRN 29)", "group": "gps-ops", "lat": -51.35798499394023, "lon": -138.59034216512705, "alt_km": 20236.140629661233, "timestamp": "2025-12-08T23:34:04.228041+00:00", "meta": {"OBJECT_NAME": "GPS BIIRM-5 (PRN 29)", "OBJECT_ID": "2007-062A", "EPOCH": "2025-12-08T07:46:47.506944", "MEAN_MOTION": 2.00576984, "ECCENTRICITY": 0.00322211, "INCLINATION": 55.1861, "RA_OF_ASC_NODE": 281.823, "ARG_OF_PERICENTER": 162.5952, "MEAN_ANOMALY": 10.0568, "EPHEMERIS_TYPE": 0, "CLASSIFICATION_TYPE": "U", "NORAD_CAT_ID": 32384, "ELEMENT_SET_NO": 999, "REV_AT_EPOCH": 13168, "BSTAR": 0, "MEAN_MOTION_DOT": -4.5e-07, "MEAN_MOTION_DDOT": 0}, "tle": {"line1": "1 32384U 07062A   25342.32416096 -.00000045  00000+0  00000+0 0  9990", "line2": "2 32384  55.1861 281.8230 0032221 162.5952  10.0568  2.00576984131682"}}, "geometry": {"type": "Point", "coordinates": [-138.59034216512705, -51.35798499394023]}}, {"type": "Feature", "properties": {"norad_id": 32711, "name": "GPS BIIRM-6 (PRN 07)", "group": "gps-ops", "lat": -24.730266571113724, "lon": -3.2670062671973783, "alt_km": 19736.739585536965, "timestamp": "2025-12-08T23:34:04.228053+00:00", "meta": {"OBJECT_NAME": "GPS BIIRM-6 (PRN 07)", "OBJECT_ID": "2008-012A", "EPOCH": "2025-12-08T04:28:46.599744", "MEAN_MOTION": 2.00565366, "ECCENTRICITY": 0.02022567, "INCLINATION": 54.4765, "RA_OF_ASC_NODE": 157.5547, "ARG_OF_PERICENTER": 244.8969, "MEAN_ANOMALY": 112.9984, "EPHEMERIS_TYPE": 0, "CLASSIFICATION_TYPE": "U", "NORAD_CAT_ID": 32711, "ELEMENT_SET_NO": 999, "REV_AT_EPOCH": 12992, "BSTAR": 0, "MEAN_MOTION_DOT": 5.8e-07, "MEAN_MOTION_DDOT": 0}, "tle": {"line1": "1 32711U 08012A   25342.18665046  .00000058  00000+0  00000+0 0  9998", "line2": "2 32711  54.4765 157.5547 0202256 244.8969 112.9984  2.00565366129920"}}, "geometry": {"type": "Point", "coordinates": [-3.2670062671973783, -24.730266571113724]}}, {"type": "Feature", "properties": {"norad_id": 35752, "name": "GPS BIIRM-8 (PRN 05)", "group": "gps-ops", "lat": -41.16498556524941, "lon": -109.05475351837808, "alt_km": 20306.946970278794, "timestamp": "2025-12-08T23:34:04.228066+00:00", "meta": {"OBJECT_NAME": "GPS BIIRM-8 (PRN 05)", "OBJECT_ID": "2009-043A", "EPOCH": "2025-12-08T03:13:53.099904", "MEAN_MOTION": 2.00565854, "ECCENTRICITY": 0.00519295, "INCLINATION": 56.0878, "RA_OF_ASC_NODE": 34.9648, "ARG_OF_PERICENTER": 81.9835, "MEAN_ANOMALY": 258.3784, "EPHEMERIS_TYPE": 0, "CLASSIFICATION_TYPE": "U", "NORAD_CAT_ID": 35752, "ELEMENT_SET_NO": 999, "REV_AT_EPOCH": 11952, "BSTAR": 0, "MEAN_MOTION_DOT": -8e-07, "MEAN_MOTION_DDOT": 0}, "tle": {"line1": "1 35752U 09043A   25342.13464236 -.00000080  00000+0  00000+0 0  9990", "line2": "2 35752  56.0878  34.9648 0051929  81.9835 258.3784  2.00565854119522"}}, "geometry": {"type": "Point", "coordinates": [-109.05475351837808, -41.16498556524941]}}, {"type": "Feature", "properties": {"norad_id": 36585, "name": "GPS BIIF-1  (PRN 25)", "group": "gps-ops", "lat": -8.714092584236035, "lon": -150.08794619840154, "alt_km": 20098.08181306564, "timestamp": "2025-12-08T23:34:04.228078+00:00", "meta": {"OBJECT_NAME": "GPS BIIF-1  (PRN 25)", "OBJECT_ID": "2010-022A", "EPOCH": "2025-12-08T05:43:48.381888", "MEAN_MOTION": 2.00552915, "ECCENTRICITY": 0.01259265, "INCLINATION": 54.3009, "RA_OF_ASC_NODE": 216.2555, "ARG_OF_PERICENTER": 65.0249, "MEAN_ANOMALY": 109.07, "EPHEMERIS_TYPE": 0, "CLASSIFICATION_TYPE": "U", "NORAD_CAT_ID": 36585, "ELEMENT_SET_NO": 999, "REV_AT_EPOCH": 11376, "BSTAR": 0, "MEAN_MOTION_DOT": 2.3e-07, "MEAN_MOTION_DDOT": 0}, "tle": {"line1": "1 36585U 10022A   25342.23875442  .00000023  00000+0  00000+0 0  9996", "line2": "2 36585  54.3009 216.2555 0125926  65.0249 109.0700  2.00552915113761"}}, "geometry": {"type": "Point", "coordinates": [-150.08794619840154, -8.714092584236035]}}, {"type": "Feature", "properties": {"norad_id": 38833, "name": "GPS BIIF-3  (PRN 24)", "group": "gps-ops", "lat": 53.517627685488996, "lon": -120.49503381932008, "alt_km": 19751.297771619626, "timestamp": "2025-12-08T23:34:04.228090+00:00", "meta": {"OBJECT_NAME": "GPS BIIF-3  (PRN 24)", "OBJECT_ID": "2012-053A", "EPOCH": "2025-12-07T20:46:13.738656", "MEAN_MOTION": 2.00564906, "ECCENTRICITY": 0.01756617, "INCLINATION": 53.5567, "RA_OF_ASC_NODE": 151.4383, "ARG_OF_PERICENTER": 63.924, "MEAN_ANOMALY": 297.8703, "EPHEMERIS_TYPE": 0, "CLASSIFICATION_TYPE": "U", "NORAD_CAT_ID": 38833, "ELEMENT_SET_NO": 999, "REV_AT_EPOCH": 9560, "BSTAR": 0, "MEAN_MOTION_DOT": 5.3e-07, "MEAN_MOTION_DDOT": 0}, "tle": {"line1": "1 38833U 12053A   25341.86543679  .00000053  00000+0  00000+0 0  9995", "line2": "2 38833  53.5567 151.4383 0175661  63.9240 297.8703  2.00564906 95601"}}, "geometry": {"type": "Point", "coordinates": [-120.49503381932008, 53.517627685488996]}}, {"type": "Feature", "properties": {"norad_id": 39166, "name": "GPS BIIF-4  (PRN 27)", "group": "gps-ops", "lat": -5.478708868185462, "lon": 100.60518469254113, "alt_km": 20452.71143378356, "timestamp": "2025-12-08T23:34:04.228101+00:00", "meta": {"OBJECT_NAME": "GPS BIIF-4  (PRN 27)", "OBJECT_ID": "2013-023A", "EPOCH": "2025-12-08T05:28:17.877216", "MEAN_MOTION": 2.00565078, "ECCENTRICITY": 0.01376231, "INCLINATION": 54.656, "RA_OF_ASC_NODE": 276.7517, "ARG_OF_PERICENTER": 48.5653, "MEAN_ANOMALY": 312.6225, "EPHEMERIS_TYPE": 0, "CLASSIFICATION_TYPE": "U", "NORAD_CAT_ID": 39166, "ELEMENT_SET_NO": 999, "REV_AT_EPOCH": 9205, "BSTAR": 0, "MEAN_MOTION_DOT": -4.1e-07, "MEAN_MOTION_DDOT": 0}, "tle": {"line1": "1 39166U 13023A   25342.22798469 -.00000041  00000+0  00000+0 0  9991", "line2": "2 39166  54.6560 276.7517 0137623  48.5653 312.6225  2.00565078 92051"}}, "geometry": {"type": "Point", "coordinates": [100.60518469254113, -5.478708868185462]}}, {"type": "Feature", "properties": {"norad_id": 39533, "name": "GPS BIIF-5  (PRN 30)", "group": "gps-ops", "lat": -5.998037188556325, "lon": -18.486987573358906, "alt_km": 20018.593349386832, "timestamp": "2025-12-08T23:34:04.228113+00:00", "meta": {"OBJECT_NAME": "GPS BIIF-5  (PRN 30)", "OBJECT_ID": "2014-008A", "EPOCH": "2025-12-07T17:22:04.649088", "MEAN_MOTION": 2.00574086, "ECCENTRICITY": 0.007908, "INCLINATION": 53.6303, "RA_OF_ASC_NODE": 157.1293, "ARG_OF_PERICENTER": 226.426, "MEAN_ANOMALY": 132.9228, "EPHEMERIS_TYPE": 0, "CLASSIFICATION_TYPE": "U", "NORAD_CAT_ID": 39533, "ELEMENT_SET_NO": 999, "REV_AT_EPOCH": 8584, "BSTAR": 0, "MEAN_MOTION_DOT": 5.5e-07, "MEAN_MOTION_DDOT": 0}, "tle": {"line1": "1 39533U 14008A   25341.72366492  .00000055  00000+0  00000+0 0  9998", "line2": "2 39533  53.6303 157.1293 0079080 226.4260 132.9228  2.00574086 85843"}}, "geometry": {"type": "Point", "coordinates": [-18.486987573358906, -5.998037188556325]}}, {"type": "Feature", "properties": {"norad_id": 39741, "name": "GPS BIIF-6  (PRN 06)", "group": "gps-ops", "lat": -13.134170319337574, "lon": -29.94452916747514, "alt_km": 20090.970812148484, "timestamp": "2025-12-08T23:34:04.228124+00:00", "meta": {"OBJECT_NAME": "GPS BIIF-6  (PRN 06)", "OBJECT_ID": "2014-026A", "EPOCH": "2025-12-08T00:09:26.593920", "MEAN_MOTION": 2.00561568, "ECCENTRICITY": 0.00390609, "INCLINATION": 56.5854, "RA_OF_ASC_NODE": 338.9605, "ARG_OF_PERICENTER": 318.4068, "MEAN_ANOMALY": 41.3073, "EPHEMERIS_TYPE": 0, "CLASSIFICATION_TYPE": "U", "NORAD_CAT_ID": 39741, "ELEMENT_SET_NO": 999, "REV_AT_EPOCH": 8470, "BSTAR": 0, "MEAN_MOTION_DOT": -8.2e-07, "MEAN_MOTION_DDOT": 0}, "tle": {"line1": "1 39741U 14026A   25342.00655780 -.00000082  00000+0  00000+0 0  9993", "line2": "2 39741  56.5854 338.9605 0039060 318.4068  41.3073  2.00561568 84701"}}, "geometry": {"type": "Point", "coordinates": [-29.94452916747514, -13.134170319337574]}}, {"type": "Feature", "properties": {"norad_id": 40105, "name": "GPS BIIF-7  (PRN 09)", "group": "gps-ops", "lat": -53.647240042559005, "lon": 25.500677128851205, "alt_km": 20269.8974480243, "timestamp": "2025-12-08T23:34:04.228136+00:00", "meta": {"OBJECT_NAME": "GPS BIIF-7  (PRN 09)", "OBJECT_ID": "2014-045A", "EPOCH": "2025-12-07T14:17:59.496864", "MEAN_MOTION": 2.00572139, "ECCENTRICITY": 0.00328259, "INCLINATION": 55.2261, "RA_OF_ASC_NODE": 96.1042, "ARG_OF_PERICENTER": 119.7348, "MEAN_ANOMALY": 240.5718, "EPHEMERIS_TYPE": 0, "CLASSIFICATION_TYPE": "U", "NORAD_CAT_ID": 40105, "ELEMENT_SET_NO": 999, "REV_AT_EPOCH": 8223, "BSTAR": 0, "MEAN_MOTION_DOT": -4e-08, "MEAN_MOTION_DDOT": 0}, "tle": {"line1": "1 40105U 14045A   25341.59582751 -.00000004  00000+0  00000+0 0  9994", "line2": "2 40105  55.2261  96.1042 0032825 119.7348 240.5718  2.00572139 82239"}}, "geometry": {"type": "Point", "coordinates": [25.500677128851205, -53.647240042559005]}}, {"type": "Feature", "properties": {"norad_id": 40294, "name": "GPS BIIF-8  (PRN 03)", "group": "gps-ops", "lat": 7.770569525388528, "lon": 43.42017173437097, "alt_km": 20099.627249073495, "timestamp": "2025-12-08T23:34:04.228149+00:00", "meta": {"OBJECT_NAME": "GPS BIIF-8  (PRN 03)", "OBJECT_ID": "2014-068A", "EPOCH": "2025-12-08T11:17:40.854336", "MEAN_MOTION": 2.00564487, "ECCENTRICITY": 0.00607942, "INCLINATION": 56.8546, "RA_OF_ASC_NODE": 38.3112, "ARG_OF_PERICENTER": 69.2801, "MEAN_ANOMALY": 291.427, "EPHEMERIS_TYPE": 0, "CLASSIFICATION_TYPE": "U", "NORAD_CAT_ID": 40294, "ELEMENT_SET_NO": 999, "REV_AT_EPOCH": 8138, "BSTAR": 0, "MEAN_MOTION_DOT": -7.8e-07, "MEAN_MOTION_DDOT": 0}, "tle": {"line1": "1 40294U 14068A   25342.47061174 -.00000078  00000+0  00000+0 0  9998", "line2": "2 40294  56.8546  38.3112 0060794  69.2801 291.4270  2.00564487 81386"}}, "geometry": {"type": "Point", "coordinates": [43.42017173437097, 7.770569525388528]}}]}